NAVSTAR 48 (USA 151)    
1 26407U 00040A   26195.27277330  .00000065  00000+0  00000+0 0  9996
2 26407  54.8486 214.0863 0120524 302.7259  97.7552  2.00557822190491
NAVSTAR 51 (USA 166)    
1 27663U 03005A   26195.12046581  .00000068  00000+0  00000+0 0  9994
2 27663  54.8791 213.8987 0148252  53.1664  13.5387  2.00559061171852
NAVSTAR 54 (USA 177)    
1 28190U 04009A   26195.36755706 -.00000010  00000+0  00000+0 0  9995
2 28190  54.8072 274.5880 0117158 174.3050 223.3706  2.00553701163494
NAVSTAR 56 (USA 180)    
1 28474U 04045A   26195.28841272 -.00000090  00000+0  00000+0 0  9993
2 28474  55.1188 323.8048 0170168 317.0371  88.5743  2.00556980158978
NAVSTAR 57 (USA 183)    
1 28874U 05038A   26195.37479356 -.00000005  00000+0  00000+0 0  9996
2 28874  54.8561 272.0791 0128202 296.4051 136.1669  2.00563728152384
INMARSAT 4-F2           
1 28899U 05044A   26194.54909826 -.00000268  00000+0  00000+0 0  9999
2 28899   5.1293  43.6584 0002772  61.2305 167.7008  1.00270497 75789
NAVSTAR 58 (USA 190)    
1 29486U 06042A   26194.93242968  .00000010  00000+0  00000+0 0  9995
2 29486  54.7128 150.2771 0107149  55.1161 316.9690  2.00568264144930
NAVSTAR 59 (USA 192)    
1 29601U 06052A   26194.34506576  .00000080  00000+0  00000+0 0  9995
2 29601  54.9324 212.9693 0084771  90.9951 270.0318  2.00559540143930
NAVSTAR 60 (USA 196)    
1 32260U 07047A   26195.14929981 -.00000034  00000+0  00000+0 0  9993
2 32260  54.1150  78.9543 0167754  87.9648 274.0127  2.00553919137355
COSMOS 2433 [GLONASS-M] 
1 32275U 07052A   26195.60182829 -.00000063  00000+0  00000+0 0  9990
2 32275  65.5599 315.0115 0003477 203.3986 156.5929  2.13104150145642
COSMOS 2432 [GLONASS-M] 
1 32276U 07052B   26194.72487859 -.00000064  00000+0  00000+0 0  9995
2 32276  65.5765 315.1695 0007405 322.3764  28.6295  2.13103098145648
NAVSTAR 61 (USA 199)    
1 32384U 07062A   26194.44170877 -.00000002  00000+0  00000+0 0  9996
2 32384  55.0109 273.0962 0036045 167.3754 169.6583  2.00561466136033
COSMOS 2434 [GLONASS-M] 
1 32393U 07065A   26194.44651598  .00000076  00000+0  00000+0 0  9993
2 32393  64.3200 191.0300 0001268 326.1372 117.2431  2.13101232144331
COSMOS 2436 [GLONASS-M] 
1 32395U 07065C   26195.33785786  .00000064  00000+0  00000+0 0  9998
2 32395  64.3286 191.0723 0017311 353.5012 185.8793  2.13099954144303
NAVSTAR 62 (USA 201)    
1 32711U 08012A   26195.05805063  .00000008  00000+0  00000+0 0  9991
2 32711  54.5000 148.8513 0211662 248.1400 109.5556  2.00573067134297
NAVSTAR 64 (USA 206)    
1 35752U 09043A   26195.56009199 -.00000068  00000+0  00000+0 0  9993
2 35752  56.2274  26.3776 0053730  84.3590 285.8102  2.00552733123917
COSMOS 2456 [GLONASS-M] 
1 36111U 09070A   26195.30819457 -.00000010  00000+0  00000+0 0  9998
2 36111  65.0270  70.0476 0003644 340.5553 202.1732  2.13103651129001
COSMOS 2457 [GLONASS-M] 
1 36112U 09070B   26194.19579927 -.00000012  00000+0  00000+0 0  9992
2 36112  65.0120  69.9289 0004075 121.6619  54.8410  2.13101172128982
COSMOS 2460 [GLONASS-M] 
1 36402U 10007C   26195.40307670 -.00000062  00000+0  00000+0 0  9990
2 36402  65.4033 313.5463 0001833 143.6465 240.9882  2.13101627127317
NAVSTAR 65 (USA 213)    
1 36585U 10022A   26195.47366416  .00000060  00000+0  00000+0 0  9996
2 36585  54.2685 207.4628 0126703  66.1537   1.4490  2.00563694118143
BEIDOU-2 IGSO-1         
1 36828U 10036A   26193.88960631 -.00000103  00000+0  00000+0 0  9992
2 36828  54.3059 162.7278 0059161 225.3005 330.1612  1.00264571 58350
BEIDOU-2 G4             
1 37210U 10057A   26195.59073336 -.00000124  00000+0  00000+0 0  9991
2 37210   3.7120  68.7678 0005724 184.5509  51.7159  1.00269764 57566
BEIDOU-2 IGSO-2         
1 37256U 10068A   26195.65157983 -.00000189  00000+0  00000+0 0  9992
2 37256  47.4976 271.4891 0056995 213.8254 150.0718  1.00273103 57071
BEIDOU-2 IGSO-3         
1 37384U 11013A   26193.51258941 -.00000165  00000+0  00000+0 0  9998
2 37384  62.4426  39.9128 0035266 183.3051 358.3524  1.00260977 55918
GSAT-8                  
1 37605U 11022A   26195.56994047  .00000075  00000+0  00000+0 0  9994
2 37605   2.1997  81.4886 0002724 164.8790 306.3270  1.00273023 53496
BEIDOU-2 IGSO-4         
1 37763U 11038A   26193.91136250 -.00000017  00000+0  00000+0 0  9994
2 37763  54.6038 165.4445 0160342 231.4539 316.2369  1.00279714 54905
GSAT0101 (GALILEO-PFM)  
1 37846U 11060A   26195.41786958 -.00000098  00000+0  00000+0 0  9993
2 37846  56.9846 341.0235 0002269  61.6458 298.3624  1.70475546 91581
GSAT0102 (GALILEO-FM2)  
1 37847U 11060B   26193.00368770 -.00000088  00000+0  00000+0 0  9994
2 37847  56.9863 341.0894 0002305  10.3981 353.6194  1.70475812 91555
COSMOS 2476 [GLONASS-M] 
1 37867U 11064A   26194.44728024 -.00000011  00000+0  00000+0 0  9997
2 37867  65.2845  71.9855 0022141 236.0231 274.5611  2.13103772114328
COSMOS 2477 [GLONASS-M] 
1 37868U 11064B   26195.15704826 -.00000009  00000+0  00000+0 0  9998
2 37868  65.2915  72.0412 0019136 236.8814 278.4747  2.13102942114335
COSMOS 2475 [GLONASS-M] 
1 37869U 11064C   26195.24943597 -.00000009  00000+0  00000+0 0  9999
2 37869  65.2982  72.0599 0024831 251.2133 290.0274  2.13101779114342
